CORVUS BC4              
1 43767U 18099K   26068.65923737  .00005714  00000+0  33980-3 0  9990
2 43767  97.4206 114.5457 0008046 356.5821   3.5354 15.11615710397368
STARLINK-3981           
1 52687U 22053AH  26068.52654867  .00000318  00000+0  38085-4 0  9994
2 52687  53.2179 144.8557 0001386  94.4850 265.6300 15.08839843211093
