[{"OBJECT_NAME":"CORVUS BC4","OBJECT_ID":"2018-099K","EPOCH":"2026-03-09T15:49:18.108768","MEAN_MOTION":15.1161571,"ECCENTRICITY":0.00080458,"INCLINATION":97.4206,"RA_OF_ASC_NODE":114.5457,"ARG_OF_PERICENTER":356.5821,"MEAN_ANOMALY":3.5354,"EPHEMERIS_TYPE":0,"CLASSIFICATION_TYPE":"U","NORAD_CAT_ID":43767,"ELEMENT_SET_NO":999,"REV_AT_EPOCH":39736,"BSTAR":0.00033979895,"MEAN_MOTION_DOT":5.714e-5,"MEAN_MOTION_DDOT":0},{"OBJECT_NAME":"STARLINK-3981","OBJECT_ID":"2022-053AH","EPOCH":"2026-03-09T12:38:13.805088","MEAN_MOTION":15.08839843,"ECCENTRICITY":0.00013868,"INCLINATION":53.2179,"RA_OF_ASC_NODE":144.8557,"ARG_OF_PERICENTER":94.485,"MEAN_ANOMALY":265.63,"EPHEMERIS_TYPE":0,"CLASSIFICATION_TYPE":"U","NORAD_CAT_ID":52687,"ELEMENT_SET_NO":999,"REV_AT_EPOCH":21109,"BSTAR":3.8085407e-5,"MEAN_MOTION_DOT":3.18e-6,"MEAN_MOTION_DDOT":0}]
